<?xml version="1.0" encoding="utf-8" ?>
<kml xmlns="http://www.opengis.net/kml/2.2">
<Document id="root_doc">
<Schema name="poligono_proyecto" id="poligono_proyecto">
	<SimpleField name="proyecto" type="string"></SimpleField>
	<SimpleField name="propietari" type="string"></SimpleField>
	<SimpleField name="dpto" type="string"></SimpleField>
	<SimpleField name="dist" type="string"></SimpleField>
	<SimpleField name="lugar" type="string"></SimpleField>
	<SimpleField name="finca" type="string"></SimpleField>
	<SimpleField name="padron" type="string"></SimpleField>
	<SimpleField name="cta_cte" type="string"></SimpleField>
	<SimpleField name="area_m2" type="float"></SimpleField>
</Schema>
<Folder><name>poligono_proyecto</name>
  <Placemark id="poligono_proyecto.1">
	<Style><LineStyle><color>ff0000ff</color></LineStyle><PolyStyle><fill>0</fill></PolyStyle></Style>
	<ExtendedData><SchemaData schemaUrl="#poligono_proyecto">
		<SimpleData name="proyecto">proyecto ejecutivo y construccion de las obras civ</SimpleData>
		<SimpleData name="propietari">mopc</SimpleData>
		<SimpleData name="dpto">asuncion</SimpleData>
		<SimpleData name="dist">catedral, la encarnacion</SimpleData>
		<SimpleData name="lugar">microcentro de asuncion</SimpleData>
		<SimpleData name="area_m2">132522.60</SimpleData>
	</SchemaData></ExtendedData>
      <MultiGeometry><Polygon><outerBoundaryIs><LinearRing><coordinates>-57.6307776024351,-25.2829429322089 -57.6312560843739,-25.2826681430227 -57.6312971887429,-25.2826765796993 -57.6313221152328,-25.2827123982376 -57.6314388404932,-25.2826454298037 -57.6314128989484,-25.2826104635975 -57.6314226440379,-25.2825743003063 -57.6320949690081,-25.2821863701356 -57.6321360732663,-25.2821948065804 -57.6321496034356,-25.2822142814993 -57.6322730431523,-25.2821433907135 -57.6322592469552,-25.2821235329101 -57.6322685259018,-25.2820861610006 -57.6329355637881,-25.2817030725135 -57.6330227588583,-25.2817209684111 -57.6330479502775,-25.2817065005289 -57.6330439145815,-25.2817006917318 -57.6331362709493,-25.2816476253634 -57.6331224754773,-25.2816277688017 -57.633131754124,-25.2815903968401 -57.633643977637,-25.2812962153796 -57.633685081691,-25.2813046513971 -57.6336988772161,-25.2813245079068 -57.6338122378156,-25.2812594018965 -57.6337984172054,-25.2812395038083 -57.6338077206919,-25.2812021733973 -57.6342821542588,-25.280929691777 -57.6343232582285,-25.2809381276195 -57.634337056677,-25.2809579881917 -57.6344532374229,-25.2808912159582 -57.6344420445866,-25.2808757333051 -57.6344510690289,-25.2808385086385 -57.6346456091982,-25.2807267771254 -57.6346727945988,-25.2807301851773 -57.6347772607889,-25.2806443613205 -57.6347601097263,-25.2806270539434 -57.6347615442795,-25.2805894356292 -57.6353850344924,-25.2800376185219 -57.6354271684862,-25.2800381344056 -57.6354475766475,-25.2800571963558 -57.635541017789,-25.2799748519604 -57.6355209732363,-25.2799559514321 -57.635520785051,-25.2799198306598 -57.6355306698607,-25.2799107576912 -57.6364347380799,-25.2791154900583 -57.6364806320764,-25.2791205041573 -57.6364945085058,-25.279140476575 -57.6366089069747,-25.2790753128406 -57.636573440574,-25.2790252941412 -57.636577986166,-25.2789914622605 -57.6372908499802,-25.278364349383 -57.637336758438,-25.2783693502839 -57.6373561658738,-25.2783972832932 -57.6374694341032,-25.2783322248929 -57.6374285366329,-25.2782733614597 -57.6374330250895,-25.2782394088371 -57.6379619395785,-25.2777748278829 -57.6380078313105,-25.2777798431055 -57.6380120785795,-25.2777859541567 -57.6381212349957,-25.2777232580203 -57.6380949723348,-25.277685458576 -57.6381021964914,-25.2776493777559 -57.6386469245651,-25.2772750845592 -57.6386900005546,-25.277282222423 -57.6387074586171,-25.2773073493779 -57.6388082178653,-25.2772494740371 -57.6387842054622,-25.2772146821365 -57.6387939479614,-25.277178518383 -57.6388510443047,-25.2771447650841 -57.6394799430062,-25.2767835265429 -57.6395229950629,-25.2767587979566 -57.6395974728194,-25.2767160176236 -57.6397834596117,-25.2767244115189 -57.6399975652225,-25.2769201197002 -57.6401085752828,-25.2768207032455 -57.640231751555,-25.2769857219262 -57.6403691365788,-25.2769279659211 -57.6403024011709,-25.2768531882869 -57.6403166367257,-25.2767879347449 -57.6407197159773,-25.2766866142034 -57.6407663035262,-25.2767098739934 -57.640880284463,-25.2768722643248 -57.6410185270323,-25.2768145030961 -57.6409831049465,-25.2767588952244 -57.6409929366581,-25.2767224858198 -57.6417852147419,-25.2767412219488 -57.641854359241,-25.2768123187776 -57.6420839149801,-25.2767937110511 -57.6420979046097,-25.2766367978882 -57.6421823620939,-25.2766237589851 -57.6421611154684,-25.2765117167153 -57.6413133806922,-25.2764573876449 -57.6406528474197,-25.2764520667534 -57.6404069292997,-25.2764132165517 -57.6399527372399,-25.2764524632922 -57.6395880201923,-25.2765201037646 -57.6395246568223,-25.2765108581723 -57.6393695901902,-25.2764424204425 -57.6389070852136,-25.2761398521178 -57.6388532734797,-25.2762689418353 -57.6393965472944,-25.2765775950072 -57.6394234401438,-25.2766411946995 -57.6394169900408,-25.2766701179812 -57.6391493103281,-25.2767615815147 -57.6386661929738,-25.2770045897315 -57.6386241176261,-25.2769896151225 -57.6386107119313,-25.2769554226321 -57.6385919052751,-25.2769612350761 -57.6385139066696,-25.2767525962523 -57.6384493379897,-25.2767896839043 -57.6379538398212,-25.276853164696 -57.6376513348779,-25.2770270470058 -57.6379605522475,-25.2774675833032 -57.6378182839222,-25.277549299824 -57.6378705062519,-25.2776244630246 -57.6378660331458,-25.2776584022921 -57.6373795850981,-25.2780816511053 -57.6373287843927,-25.2780878930226 -57.6373087794604,-25.2780608882326 -57.6371701129471,-25.2781337302025 -57.637230127717,-25.2782147446204 -57.6372274596474,-25.2782515110788 -57.636512924064,-25.2788800946861 -57.6364670154423,-25.2788750935325 -57.6364480387629,-25.2788477802214 -57.6363349138848,-25.2789127549233 -57.6363751782668,-25.2789707078804 -57.6363707060195,-25.2790046459469 -57.6353680464863,-25.2798866779448 -57.6353258611516,-25.2798859953062 -57.6347230369581,-25.279316564655 -57.634723783199,-25.2792783104886 -57.6348396718812,-25.2791763381287 -57.6347212327136,-25.279065064848 -57.6346994865641,-25.2790770971055 -57.6346550641874,-25.279060426624 -57.6346425759303,-25.279014274313 -57.6345992454719,-25.279023631302 -57.63460498347,-25.2790455953541 -57.6345361976767,-25.2790604478074 -57.6344733911542,-25.2788199859605 -57.6339975968737,-25.2792310423322 -57.6335818097374,-25.2795691896698 -57.6338097040991,-25.2797658584071 -57.633532242159,-25.2800478097149 -57.633332172574,-25.279884425203 -57.6327927813344,-25.2803765701351 -57.6327125981735,-25.2804195397639 -57.6324531997917,-25.2805598300787 -57.6325681615644,-25.2807252775228 -57.6325695912753,-25.2807274548521 -57.6325700105753,-25.2807296249094 -57.6325687803481,-25.2807322845887 -57.632565334014,-25.2807344874168 -57.6324202804645,-25.2808177839718 -57.6325868082334,-25.281061237522 -57.6326085046517,-25.2810473996028 -57.6327119939161,-25.2811962451129 -57.6327081915312,-25.281208297204 -57.6323288249043,-25.2814261730652 -57.6323347299667,-25.2814335458266 -57.6323425750171,-25.2814410162065 -57.6323480903485,-25.2814450975565 -57.6323531970876,-25.281448294487 -57.6323593830556,-25.2814515249803 -57.6323720065302,-25.2814561750706 -57.6323805530153,-25.2814581362295 -57.6323902290836,-25.2814594176436 -57.6324001610717,-25.2814593750764 -57.6324099971495,-25.281458031642 -57.6324192995396,-25.2814558379123 -57.6324250824174,-25.2814539040425 -57.6324305518251,-25.2814515479576 -57.6324386310677,-25.2814473913536 -57.6328097289633,-25.2812342640151 -57.6328159558731,-25.2812314739192 -57.6328262377081,-25.2812299171893 -57.6328354170657,-25.2812313063689 -57.6328437399282,-25.2812352788296 -57.632849132063,-25.2812399960316 -57.6328536723464,-25.2812461084495 -57.6328884533907,-25.2812959126073 -57.6328804768903,-25.2813270488103 -57.632968850581,-25.2814542455469 -57.6330031078345,-25.2814612612666 -57.6330253161328,-25.2814932269647 -57.6330294702141,-25.2814994674657 -57.633032011061,-25.2815059901991 -57.6330326721904,-25.2815115283748 -57.6330318365196,-25.281518025075 -57.6330297899039,-25.2815231594488 -57.6330261020757,-25.2815286373269 -57.6330213389423,-25.2815329202054 -57.6330152954824,-25.2815365857627 -57.6326092204541,-25.2817698011615 -57.632583417361,-25.2817707349327 -57.6324258263875,-25.2818612413785 -57.6324138142297,-25.2818820253776 -57.6321974553638,-25.2820062612902 -57.6321946887928,-25.2820077390134 -57.6321930658908,-25.2820084838185 -57.6321845294743,-25.2820117021995 -57.6321741278279,-25.2820138409925 -57.6321646408469,-25.2820143186439 -57.6321540881275,-25.2820132234385 -57.6321449948549,-25.2820107937037 -57.632137816442,-25.2820078043215 -57.6321330584634,-25.2820051983624 -57.6321269432781,-25.2820010259649 -57.6321222252042,-25.2819967415857 -57.632117688762,-25.2819916700614 -57.6320987959798,-25.2819646694622 -57.6320195520469,-25.2820101798364 -57.6320419152751,-25.282042268231 -57.6320325550895,-25.2820796239649 -57.6313506998022,-25.2824712152058 -57.6313095954996,-25.2824627785428 -57.6312873135526,-25.2824307062009 -57.6311697518514,-25.2824982215694 -57.6311930946155,-25.2825318208792 -57.6311838153052,-25.2825691927277 -57.6307022288058,-25.2828457624133 -57.6306611261492,-25.2828373272699 -57.6306377835096,-25.2828037274673 -57.6305265190728,-25.2828676254634 -57.6305488009045,-25.2828996979211 -57.6305395213755,-25.2829370697449 -57.6300289627945,-25.2832302761334 -57.6299878583167,-25.2832218391065 -57.6299655232382,-25.2831896501579 -57.6298555710276,-25.2832529406961 -57.6298778527578,-25.2832850132555 -57.6298685729918,-25.283322385025 -57.6292398607126,-25.2836833734649 -57.6291989296587,-25.2836749029416 -57.6291481225062,-25.2836017700559 -57.6290607785029,-25.2836506532912 -57.6291377031509,-25.2837604716623 -57.6290716933573,-25.2837891701513 -57.6285185510737,-25.2838191557545 -57.6285056013937,-25.2838964082782 -57.6287799485847,-25.2838716977979 -57.6287741317074,-25.2839507282798 -57.6275647728872,-25.2846039787253 -57.6276255005735,-25.2846969587507 -57.6284045178576,-25.2843020006138 -57.6284456225977,-25.2843104380767 -57.6286813667455,-25.2846497744231 -57.6286720865182,-25.2846871461199 -57.6286198344621,-25.2847127352343 -57.6287003531171,-25.284827957051 -57.628750896752,-25.2847988961188 -57.6287920016858,-25.2848073334802 -57.6291678017715,-25.2853482634401 -57.6291585216243,-25.2853856351942 -57.6290982062947,-25.2854180934913 -57.6291651364137,-25.2855123611737 -57.6292253542324,-25.2854818340135 -57.6292664594264,-25.285490271237 -57.6295395354519,-25.2858833344911 -57.629530255403,-25.2859207062309 -57.6294798585775,-25.2859470134768 -57.6295487919929,-25.2860561557768 -57.6296026580398,-25.286024921416 -57.6296437634419,-25.2860333585287 -57.6296835451865,-25.2860906195922 -57.6297935533464,-25.2860274455606 -57.6297553628422,-25.2859724749698 -57.6297646428257,-25.2859351032161 -57.6303752829911,-25.2855844258228 -57.630416391412,-25.2855928652158 -57.6304545820869,-25.2856478356347 -57.6305654291909,-25.2855841787913 -57.6305272384881,-25.2855292084012 -57.6305365182028,-25.2854918366023 -57.6311389500243,-25.2851458717098 -57.6311800552252,-25.2851543084 -57.6312189435136,-25.2852091566634 -57.6313257334188,-25.2851475502282 -57.6312853531485,-25.2850894287571 -57.6312946326,-25.2850520569136 -57.63179970094,-25.2847622622152 -57.6318056943292,-25.2847597496641 -57.6318114677752,-25.2847583276696 -57.631815617475,-25.2847578227772 -57.6318212923488,-25.2847577856563 -57.6318265547154,-25.2847584104802 -57.6318308883259,-25.2847593853942 -57.6318377974345,-25.2847620620687 -57.6318419980732,-25.284764441509 -57.6318475595402,-25.28476878962 -57.6318528672405,-25.2847750432595 -57.6318875208323,-25.2848249216804 -57.6319966869467,-25.2847622282963 -57.6319596078174,-25.2847086142078 -57.6319571439515,-25.284702714555 -57.6319555492491,-25.2846929009599 -57.6319568202196,-25.2846834561802 -57.6319599463783,-25.2846760820719 -57.6319638266867,-25.2846704824397 -57.6319679414036,-25.284666342982 -57.6319722752663,-25.284663108434 -57.6320294734642,-25.284630180965 -57.6319716564781,-25.2845469624712 -57.6319223423039,-25.2845752833329 -57.6319133118559,-25.2845802986233 -57.6319076404469,-25.2845824795339 -57.6318992502622,-25.2845841497281 -57.6318913540128,-25.2845841995927 -57.6318844102111,-25.2845830492299 -57.6318775829809,-25.2845807020237 -57.6318702921282,-25.2845766035132 -57.6318612118824,-25.2845672330659 -57.6315946844752,-25.2841834917834 -57.6315926932554,-25.2841798433564 -57.6315901799356,-25.2841721048178 -57.6315897874832,-25.2841629346192 -57.6315914746618,-25.2841546465321 -57.6315975156089,-25.284144065852 -57.6316028398754,-25.2841388029498 -57.6316082339789,-25.2841351018477 -57.6316634730766,-25.2841033783863 -57.6315865612607,-25.2839926746694 -57.6315299058472,-25.28402515906 -57.6315263843258,-25.2840266231068 -57.6315208014972,-25.2840278221114 -57.6315151029019,-25.2840278458148 -57.6315107897498,-25.2840270406723 -57.6315046447368,-25.2840245035874 -57.6314986333851,-25.2840196674201 -57.6314618766171,-25.2839670836603 -57.6311069767981,-25.2834359086039 -57.6311628142447,-25.2834030064607 -57.6310865714729,-25.28329980133 -57.6310358254659,-25.2833294164298 -57.6307776024351,-25.2829429322089</coordinates></LinearRing></outerBoundaryIs><innerBoundaryIs><LinearRing><coordinates>-57.6313275188216,-25.2840442442457 -57.6313571635649,-25.284086913878 -57.6313645137338,-25.2840981720148 -57.631365816784,-25.2841020151728 -57.6313663059796,-25.2841081188741 -57.6313650503322,-25.2841139313819 -57.6313616180442,-25.2841199424219 -57.6313568966113,-25.2841244090642 -57.6313512229565,-25.284127827646 -57.6308509505163,-25.2844151280327 -57.6308098455861,-25.2844066912446 -57.6304157274913,-25.2838432231666 -57.6309664556508,-25.2835187103376 -57.6313275188216,-25.2840442442457</coordinates></LinearRing></innerBoundaryIs><innerBoundaryIs><LinearRing><coordinates>-57.6308934780488,-25.2834124894565 -57.6303684283448,-25.2837189028969 -57.6303273236832,-25.2837104659706 -57.6300899628453,-25.2833688089965 -57.6300992425458,-25.2833314372148 -57.630609801367,-25.2830382305665 -57.6306289005903,-25.2830273878788 -57.6308934780488,-25.2834124894565</coordinates></LinearRing></innerBoundaryIs><innerBoundaryIs><LinearRing><coordinates>-57.6317375596927,-25.2846361420776 -57.6317395522572,-25.2846414859602 -57.6317394388386,-25.2846486530118 -57.6317365931458,-25.2846546331716 -57.6317316213089,-25.2846593497105 -57.6312215721874,-25.2849523080062 -57.6311804670491,-25.2849438713423 -57.6309079829873,-25.2845516675504 -57.6309172506423,-25.2845142904365 -57.6314198465608,-25.284225660047 -57.631431241792,-25.2842207638562 -57.631440476773,-25.2842210188975 -57.6314519088101,-25.2842263604971 -57.6317375596927,-25.2846361420776</coordinates></LinearRing></innerBoundaryIs></Polygon></MultiGeometry>
  </Placemark>
</Folder>
</Document></kml>
